$$SOE
2461295.500000000, A.D. 2026-Sep-12 00:00:00.0000, 6.456883077164780E+07, 4.979405664922444E+08, 1.560104676456563E+08,
2461302.500000000, A.D. 2026-Sep-19 00:00:00.0000, 5.605596688624529E+07, 5.005405233908281E+08, 1.569171199013595E+08,
2461309.500000000, A.D. 2026-Sep-26 00:00:00.0000, 4.752447349280968E+07, 5.029749542428750E+08, 1.577718563762574E+08,
2461316.500000000, A.D. 2026-Oct-03 00:00:00.0000, 3.897732275649304E+07, 5.052446762729317E+08, 1.585749036137530E+08,
2461323.500000000, A.D. 2026-Oct-10 00:00:00.0000, 3.041743347523858E+07, 5.073505272266244E+08, 1.593264952200817E+08,
2461330.500000000, A.D. 2026-Oct-17 00:00:00.0000, 2.184767246621166E+07, 5.092933641059371E+08, 1.600268714348825E+08,
2461337.500000000, A.D. 2026-Oct-24 00:00:00.0000, 1.327085592291635E+07, 5.110740618895870E+08, 1.606762787199447E+08,
2461344.500000000, A.D. 2026-Oct-31 00:00:00.0000, 4.689750840519502E+06, 5.126935121681556E+08, 1.612749693506712E+08,
2461351.500000000, A.D. 2026-Nov-07 00:00:00.0000, -3.892923152647975E+06, 5.141526217646509E+08, 1.618232009844193E+08,
2461358.500000000, A.D. 2026-Nov-14 00:00:00.0000, -1.247449135729778E+07, 5.154523122249978E+08, 1.623212362592526E+08,
2461365.500000000, A.D. 2026-Nov-21 00:00:00.0000, -2.105232277072058E+07, 5.165935208574978E+08, 1.627693426443900E+08,
2461372.500000000, A.D. 2026-Nov-28 00:00:00.0000, -2.962383105732352E+07, 5.175772003088447E+08, 1.631677923866133E+08,
2461379.500000000, A.D. 2026-Dec-05 00:00:00.0000, -3.818647410367511E+07, 5.184043160160313E+08, 1.635168621656875E+08,
2461386.500000000, A.D. 2026-Dec-12 00:00:00.0000, -4.673775199385832E+07, 5.190758446426920E+08, 1.638168326974362E+08,
2461393.500000000, A.D. 2026-Dec-19 00:00:00.0000, -5.527520529233240E+07, 5.195927735033723E+08, 1.640679884572341E+08,
2461400.500000000, A.D. 2026-Dec-26 00:00:00.0000, -6.379641377726249E+07, 5.199561001043627E+08, 1.642706174650769E+08,
2461407.500000000, A.D. 2027-Jan-02 00:00:00.0000, -7.229899534947580E+07, 5.201668316075172E+08, 1.644250110907937E+08,
2461414.500000000, A.D. 2027-Jan-09 00:00:00.0000, -8.078060500111832E+07, 5.202259842351054E+08, 1.645314638700235E+08,
2461421.500000000, A.D. 2027-Jan-16 00:00:00.0000, -8.923893380974546E+07, 5.201345826225584E+08, 1.645902733281247E+08,
2461428.500000000, A.D. 2027-Jan-23 00:00:00.0000, -9.767170791306216E+07, 5.198936590774975E+08, 1.646017398041100E+08,
2461435.500000000, A.D. 2027-Jan-30 00:00:00.0000, -1.060766872779427E+08, 5.195042526952218E+08, 1.645661662529112E+08,
2461442.500000000, A.D. 2027-Feb-06 00:00:00.0000, -1.144516638404951E+08, 5.189674086687602E+08, 1.644838580142079E+08,
2461449.500000000, A.D. 2027-Feb-13 00:00:00.0000, -1.227944594788885E+08, 5.182841790117238E+08, 1.643551226892793E+08,
2461456.500000000, A.D. 2027-Feb-20 00:00:00.0000, -1.311029261832938E+08, 5.174556239016210E+08, 1.641802702774423E+08,
2461463.500000000, A.D. 2027-Feb-27 00:00:00.0000, -1.393749470270413E+08, 5.164828104272919E+08, 1.639596131801465E+08,
2461470.500000000, A.D. 2027-Mar-06 00:00:00.0000, -1.476084349219275E+08, 5.153668106608763E+08, 1.636934659522084E+08,
2461477.500000000, A.D. 2027-Mar-13 00:00:00.0000, -1.558013307582399E+08, 5.141087011032634E+08, 1.633821451142645E+08,
2461484.500000000, A.D. 2027-Mar-20 00:00:00.0000, -1.639516020582353E+08, 5.127095626673174E+08, 1.630259690612277E+08,
2461491.500000000, A.D. 2027-Mar-27 00:00:00.0000, -1.720572419405182E+08, 5.111704806483669E+08, 1.626252580026128E+08,
2461498.500000000, A.D. 2027-Apr-03 00:00:00.0000, -1.801162681920711E+08, 5.094925446328080E+08, 1.621803339116229E+08,
2461505.500000000, A.D. 2027-Apr-10 00:00:00.0000, -1.881267223863650E+08, 5.076768483666813E+08, 1.616915204787947E+08,
2461512.500000000, A.D. 2027-Apr-17 00:00:00.0000, -1.960866690251166E+08, 5.057244895688176E+08, 1.611591430666049E+08,
2461519.500000000, A.D. 2027-Apr-24 00:00:00.0000, -2.039941946241109E+08, 5.036365696253504E+08, 1.605835286523308E+08,
2461526.500000000, A.D. 2027-May-01 00:00:00.0000, -2.118474064431279E+08, 5.014141931924037E+08, 1.599650057336345E+08,
2461533.500000000, A.D. 2027-May-08 00:00:00.0000, -2.196444305524120E+08, 4.990584684545100E+08, 1.593039042296335E+08,
2461540.500000000, A.D. 2027-May-15 00:00:00.0000, -2.273834107324311E+08, 4.965705089919001E+08, 1.586005555926792E+08,
2461547.500000000, A.D. 2027-May-22 00:00:00.0000, -2.350625097698799E+08, 4.939514346646962E+08, 1.578552930622965E+08,
2461554.500000000, A.D. 2027-May-29 00:00:00.0000, -2.426799097931195E+08, 4.912023700440452E+08, 1.570684516328501E+08,
2461561.500000000, A.D. 2027-Jun-05 00:00:00.0000, -2.502338107626667E+08, 4.883244435209320E+08, 1.562403679096685E+08,
2461568.500000000, A.D. 2027-Jun-12 00:00:00.0000, -2.577224291243237E+08, 4.853187875247248E+08, 1.553713800733804E+08,
2461575.500000000, A.D. 2027-Jun-19 00:00:00.0000, -2.651439969553788E+08, 4.821865389162246E+08, 1.544618279064475E+08,
2461582.500000000, A.D. 2027-Jun-26 00:00:00.0000, -2.724967613240162E+08, 4.789288392933337E+08, 1.535120528348894E+08,
2461589.500000000, A.D. 2027-Jul-03 00:00:00.0000, -2.797789837295326E+08, 4.755468352171950E+08, 1.525223979738546E+08,
2461596.500000000, A.D. 2027-Jul-10 00:00:00.0000, -2.869889395862342E+08, 4.720416783672522E+08, 1.514932081745422E+08,
2461603.500000000, A.D. 2027-Jul-17 00:00:00.0000, -2.941249177142769E+08, 4.684145255861675E+08, 1.504248300661370E+08,
2461610.500000000, A.D. 2027-Jul-24 00:00:00.0000, -3.011852196804729E+08, 4.646665387515432E+08, 1.493176120733596E+08,
2461617.500000000, A.D. 2027-Jul-31 00:00:00.0000, -3.081681585770054E+08, 4.607988847095174E+08, 1.481719043911040E+08,
2461624.500000000, A.D. 2027-Aug-07 00:00:00.0000, -3.150720574383664E+08, 4.568127364214132E+08, 1.469880590285901E+08,
2461631.500000000, A.D. 2027-Aug-14 00:00:00.0000, -3.218952495974385E+08, 4.527092750699321E+08, 1.457664301133681E+08,
2461638.500000000, A.D. 2027-Aug-21 00:00:00.0000, -3.286360803617308E+08, 4.484896897601838E+08, 1.445073741232540E+08,
2461645.500000000, A.D. 2027-Aug-28 00:00:00.0000, -3.352929065784428E+08, 4.441551760172694E+08, 1.432112498294016E+08,
2461652.500000000, A.D. 2027-Sep-04 00:00:00.0000, -3.418640952706189E+08, 4.397069355824710E+08, 1.418784182635570E+08,
2461659.500000000, A.D. 2027-Sep-11 00:00:00.0000, -3.483480227402738E+08, 4.351461768477550E+08, 1.405092427837853E+08,
2461666.500000000, A.D. 2027-Sep-18 00:00:00.0000, -3.547430740050308E+08, 4.304741152791888E+08, 1.391040891732863E+08,
2461673.500000000, A.D. 2027-Sep-25 00:00:00.0000, -3.610476423390042E+08, 4.256919737521113E+08, 1.376633257447000E+08,
2461680.500000000, A.D. 2027-Oct-02 00:00:00.0000, -3.672601288424933E+08, 4.208009828260305E+08, 1.361873234449398E+08,
2461687.500000000, A.D. 2027-Oct-09 00:00:00.0000, -3.733789420176728E+08, 4.158023809551216E+08, 1.346764559577779E+08,
2461694.500000000, A.D. 2027-Oct-16 00:00:00.0000, -3.794024972867606E+08, 4.106974145797876E+08, 1.331310997935889E+08,
2461701.500000000, A.D. 2027-Oct-23 00:00:00.0000, -3.853292161924701E+08, 4.054873380938628E+08, 1.315516343416801E+08,
2461708.500000000, A.D. 2027-Oct-30 00:00:00.0000, -3.911575249058474E+08, 4.001734142979635E+08, 1.299384419005323E+08,
2461715.500000000, A.D. 2027-Nov-06 00:00:00.0000, -3.968858532051617E+08, 3.947569164674881E+08, 1.282919078848519E+08,
2461722.500000000, A.D. 2027-Nov-13 00:00:00.0000, -4.025126359115246E+08, 3.892391299600028E+08, 1.266124212220245E+08,
2461729.500000000, A.D. 2027-Nov-20 00:00:00.0000, -4.080363138785626E+08, 3.836213511765450E+08, 1.249003744930487E+08,
2461736.500000000, A.D. 2027-Nov-27 00:00:00.0000, -4.134553329181774E+08, 3.779048868406057E+08, 1.231561639116386E+08,
2461743.500000000, A.D. 2027-Dec-04 00:00:00.0000, -4.187681426867911E+08, 3.720910545088624E+08, 1.213801894020321E+08,
2461750.500000000, A.D. 2027-Dec-11 00:00:00.0000, -4.239731960831114E+08, 3.661811833505428E+08, 1.195728547475485E+08,
2461757.500000000, A.D. 2027-Dec-18 00:00:00.0000, -4.290689488824443E+08, 3.601766148568510E+08, 1.177345677571291E+08,
2461764.500000000, A.D. 2027-Dec-25 00:00:00.0000, -4.340538594556308E+08, 3.540787034786224E+08, 1.158657404358874E+08,
2461771.500000000, A.D. 2028-Jan-01 00:00:00.0000, -4.389263885313960E+08, 3.478888172071427E+08, 1.139667891572584E+08,
$$EOE